STARLINK-2022           
1 47643U 21012Z   24286.49275569  .00059791  00000+0  39982-2 0  9992
2 47643  53.0542 195.4490 0001456 106.5719 253.5430 15.06407592202917
